[{"OBJECT_NAME":"STARLINK-36496","OBJECT_ID":"2026-002AA","EPOCH":"2026-03-09T01:33:51.489792","MEAN_MOTION":15.27564785,"ECCENTRICITY":0.00017394,"INCLINATION":43.0006,"RA_OF_ASC_NODE":328.7667,"ARG_OF_PERICENTER":272.1531,"MEAN_ANOMALY":87.9121,"EPHEMERIS_TYPE":0,"CLASSIFICATION_TYPE":"U","NORAD_CAT_ID":67329,"ELEMENT_SET_NO":999,"REV_AT_EPOCH":1096,"BSTAR":0.0013789403,"MEAN_MOTION_DOT":0.00037861,"MEAN_MOTION_DDOT":0},{"OBJECT_NAME":"FENGYUN 1C DEB","OBJECT_ID":"1999-025AQG","EPOCH":"2026-03-09T10:43:06.043872","MEAN_MOTION":15.25746961,"ECCENTRICITY":0.00178142,"INCLINATION":98.9311,"RA_OF_ASC_NODE":250.2123,"ARG_OF_PERICENTER":328.3876,"MEAN_ANOMALY":31.6286,"EPHEMERIS_TYPE":0,"CLASSIFICATION_TYPE":"U","NORAD_CAT_ID":30674,"ELEMENT_SET_NO":999,"REV_AT_EPOCH":98658,"BSTAR":0.015201752,"MEAN_MOTION_DOT":0.00411052,"MEAN_MOTION_DDOT":0}]
